STARLINK-1416
1 25692C 20035AM  21325.11024813  .00006010  00000-0  40263-3 0  3257
2 25692  53.0539 262.7463 0002158  63.9133  10.5216 15.06396816    15
